{
  "type": "FeatureCollection",
  "name": "Selected major U.S. transmission corridors",
  "metadata": {
    "as_of": "2026-08-01",
    "geometry_quality": "Approximate orientation waypoints, not surveyed or permitted routes.",
    "capacity_rule": "primary_capacity_mw is typed by primary_capacity_type; inspect corridor-catalog.json for all capacity records and caveats.",
    "not_for": ["engineering", "siting", "parcel analysis", "power-flow analysis", "summing national capacity"]
  },
  "features": [
    {
      "type": "Feature",
      "id": "COR-NECEC",
      "properties": {"name": "New England Clean Energy Connect", "status": "operating", "primary_capacity_mw": 1200, "primary_capacity_type": "energy_import_capability_study_assumption", "technology": "HVDC", "source_id": "SRC-ISONE-TRANSFER26", "geometry_quality": "approximate_waypoints"},
      "geometry": {"type": "LineString", "coordinates": [[-70.23,45.42],[-70.26,45.10],[-70.18,44.78],[-70.09,44.47],[-70.21,44.10]]}
    },
    {
      "type": "Feature",
      "id": "COR-CHPE",
      "properties": {"name": "Champlain Hudson Power Express", "status": "operating", "primary_capacity_mw": 1250, "primary_capacity_type": "converter_or_project_nameplate", "technology": "HVDC cable", "source_id": "SRC-NYSERDA-CHPE26", "geometry_quality": "approximate_waypoints"},
      "geometry": {"type": "LineString", "coordinates": [[-73.85,45.36],[-73.42,44.98],[-73.41,44.20],[-73.50,43.50],[-73.75,42.50],[-73.95,41.50],[-73.98,40.77]]}
    },
    {
      "type": "Feature",
      "id": "COR-PDCI",
      "properties": {"name": "Pacific Direct Current Intertie", "status": "operating_with_upgrade", "primary_capacity_mw": 3100, "primary_capacity_type": "nominal_transfer_capability", "technology": "HVDC", "source_id": "SRC-BPA-PDCI", "geometry_quality": "approximate_waypoints"},
      "geometry": {"type": "LineString", "coordinates": [[-121.10,45.61],[-121.30,43.50],[-121.50,41.50],[-121.60,39.50],[-120.30,37.50],[-119.30,35.70],[-118.49,34.31]]}
    },
    {
      "type": "Feature",
      "id": "COR-HQ-PHASEII",
      "properties": {"name": "Hydro-Quebec Phase II", "status": "operating", "primary_capacity_mw": 2000, "primary_capacity_type": "energy_import_capability_study_assumption", "technology": "HVDC", "source_id": "SRC-ISONE-TRANSFER26", "geometry_quality": "approximate_US_segment"},
      "geometry": {"type": "LineString", "coordinates": [[-72.50,45.01],[-72.30,44.40],[-72.20,43.80],[-71.90,43.20],[-71.57,42.56]]}
    },
    {
      "type": "Feature",
      "id": "COR-CROSS-SOUND",
      "properties": {"name": "Cross Sound Cable", "status": "operating", "primary_capacity_mw": 330, "primary_capacity_type": "unforced_capacity_delivery_right", "technology": "HVDC cable", "source_id": "SRC-NYISO-UDR", "geometry_quality": "approximate_endpoints"},
      "geometry": {"type": "LineString", "coordinates": [[-72.92,41.25],[-72.90,40.95]]}
    },
    {
      "type": "Feature",
      "id": "COR-NEPTUNE",
      "properties": {"name": "Neptune Regional Transmission System", "status": "operating", "primary_capacity_mw": 660, "primary_capacity_type": "unforced_capacity_delivery_right", "technology": "HVDC cable", "source_id": "SRC-NYISO-UDR", "geometry_quality": "approximate_endpoints"},
      "geometry": {"type": "LineString", "coordinates": [[-74.36,40.47],[-73.90,40.45],[-73.55,40.67]]}
    },
    {
      "type": "Feature",
      "id": "COR-LINDEN-VFT",
      "properties": {"name": "Linden VFT", "status": "operating", "primary_capacity_mw": 315, "primary_capacity_type": "unforced_capacity_delivery_right", "technology": "controllable AC intertie", "source_id": "SRC-NYISO-UDR", "geometry_quality": "schematic"},
      "geometry": {"type": "LineString", "coordinates": [[-74.25,40.62],[-74.15,40.63],[-74.08,40.65]]}
    },
    {
      "type": "Feature",
      "id": "COR-HUDSON",
      "properties": {"name": "Hudson Transmission Project", "status": "operating", "primary_capacity_mw": 660, "primary_capacity_type": "unforced_capacity_delivery_right", "technology": "HVDC cable", "source_id": "SRC-NYISO-UDR", "geometry_quality": "approximate_endpoints"},
      "geometry": {"type": "LineString", "coordinates": [[-74.01,40.83],[-74.00,40.76]]}
    },
    {
      "type": "Feature",
      "id": "COR-TRANS-BAY",
      "properties": {"name": "Trans Bay Cable", "status": "operating", "primary_capacity_mw": 400, "primary_capacity_type": "converter_or_project_nameplate", "technology": "HVDC cable", "source_id": "SRC-CAISO-TRANSBAY", "geometry_quality": "approximate_endpoints"},
      "geometry": {"type": "LineString", "coordinates": [[-121.88,38.03],[-122.17,37.90],[-122.39,37.76]]}
    },
    {
      "type": "Feature",
      "id": "COR-MATL",
      "properties": {"name": "Montana-Alberta Tie Line", "status": "operating", "primary_capacity_mw": 300, "primary_capacity_type": "directional_permit_limit", "direction": "northbound", "technology": "230 kV AC", "source_id": "SRC-DOE-MATL", "geometry_quality": "approximate_waypoints"},
      "geometry": {"type": "LineString", "coordinates": [[-111.30,47.50],[-111.45,48.20],[-112.10,49.00],[-112.84,49.70]]}
    },
    {
      "type": "Feature",
      "id": "COR-GREAT-NORTHERN",
      "properties": {"name": "Great Northern Transmission Line", "status": "operating", "primary_capacity_mw": 883, "primary_capacity_type": "converter_or_project_nameplate", "technology": "500 kV AC", "source_id": "SRC-DOE-GNTL", "geometry_quality": "approximate_waypoints"},
      "geometry": {"type": "LineString", "coordinates": [[-93.50,47.25],[-94.60,48.10],[-96.00,48.70],[-97.00,49.90]]}
    },
    {
      "type": "Feature",
      "id": "COR-ONELINE",
      "properties": {"name": "One Nevada Line", "status": "operating", "primary_capacity_mw": 600, "primary_capacity_type": "converter_or_project_nameplate", "technology": "500 kV AC", "source_id": "SRC-DOE-ONELINE", "geometry_quality": "approximate_waypoints"},
      "geometry": {"type": "LineString", "coordinates": [[-114.84,39.10],[-115.00,38.20],[-115.20,37.20],[-115.05,36.41]]}
    },
    {
      "type": "Feature",
      "id": "COR-TEN-WEST",
      "properties": {"name": "Ten West Link", "status": "operating", "primary_capacity_mw": 2400, "primary_capacity_type": "equipment_limit", "secondary_capacity_mw": 3200, "secondary_capacity_type": "conductor_capability", "technology": "500 kV AC", "source_id": "SRC-CAISO-TENWEST24", "geometry_quality": "approximate_endpoints"},
      "geometry": {"type": "LineString", "coordinates": [[-112.87,33.27],[-113.65,33.45],[-114.58,33.62]]}
    },
    {
      "type": "Feature",
      "id": "COR-SUNZIA",
      "properties": {"name": "SunZia Transmission", "status": "under_construction", "primary_capacity_mw": 3000, "primary_capacity_type": "converter_or_project_nameplate", "secondary_capacity_mw": 4500, "secondary_capacity_type": "permitted_ultimate_configuration", "technology": "500 kV AC", "source_id": "SRC-BLM-SUNZIA", "geometry_quality": "approximate_waypoints"},
      "geometry": {"type": "LineString", "coordinates": [[-105.60,34.30],[-106.40,33.80],[-107.40,33.20],[-109.05,32.70],[-110.30,32.50],[-111.55,32.75]]}
    },
    {
      "type": "Feature",
      "id": "COR-TRANSWEST",
      "properties": {"name": "TransWest Express", "status": "under_construction", "primary_capacity_mw": 3000, "primary_capacity_type": "converter_or_project_nameplate", "technology": "HVDC", "source_id": "SRC-WAPA-TRANSWEST", "geometry_quality": "approximate_waypoints"},
      "geometry": {"type": "LineString", "coordinates": [[-107.11,41.78],[-108.60,40.60],[-109.60,39.40],[-111.20,38.10],[-112.40,36.90],[-114.80,35.95]]}
    },
    {
      "type": "Feature",
      "id": "COR-GRAIN-BELT-P1",
      "properties": {"name": "Grain Belt Express Phase 1", "status": "development_and_permitting", "primary_capacity_mw": 2500, "primary_capacity_type": "converter_or_project_nameplate", "secondary_capacity_mw": 5000, "secondary_capacity_type": "permitted_ultimate_configuration", "technology": "HVDC", "source_id": "SRC-DOE-GBX-FEIS25", "geometry_quality": "approximate_waypoints"},
      "geometry": {"type": "LineString", "coordinates": [[-100.00,37.70],[-98.30,38.00],[-96.50,39.00],[-94.70,39.50],[-92.80,39.40],[-91.90,38.75]]}
    },
    {
      "type": "Feature",
      "id": "COR-NORTH-PLAINS",
      "properties": {"name": "North Plains Connector", "status": "draft_federal_environmental_review", "primary_capacity_mw": 3000, "primary_capacity_type": "converter_or_project_nameplate", "direction": "bidirectional", "technology": "HVDC", "source_id": "SRC-DOE-NPC26", "geometry_quality": "approximate_waypoints"},
      "geometry": {"type": "LineString", "coordinates": [[-106.62,45.88],[-105.00,46.20],[-103.50,46.50],[-101.40,46.90]]}
    },
    {
      "type": "Feature",
      "id": "COR-SOUTHERN-SPIRIT",
      "properties": {"name": "Southern Spirit Transmission", "status": "development_program_selection", "primary_capacity_mw": 3000, "primary_capacity_type": "converter_or_project_nameplate", "direction": "bidirectional", "technology": "HVDC", "source_id": "SRC-DOE-TFP-PROJECTS", "geometry_quality": "approximate_endpoints"},
      "geometry": {"type": "LineString", "coordinates": [[-94.80,32.20],[-93.30,32.40],[-91.70,32.70],[-90.20,33.00],[-88.90,33.30]]}
    },
    {
      "type": "Feature",
      "id": "COR-AROOSTOOK",
      "properties": {"name": "Aroostook Renewable Project", "status": "development_program_selection", "primary_capacity_mw": 1200, "primary_capacity_type": "converter_or_project_nameplate", "technology": "AC", "source_id": "SRC-DOE-TFP-PROJECTS", "geometry_quality": "schematic"},
      "geometry": {"type": "LineString", "coordinates": [[-68.60,46.80],[-68.70,46.20],[-68.80,45.60],[-69.00,45.10]]}
    },
    {
      "type": "Feature",
      "id": "COR-CIMARRON",
      "properties": {"name": "Cimarron Link", "status": "development_program_selection", "primary_capacity_mw": 1900, "primary_capacity_type": "firm_point_to_point_service", "technology": "HVDC", "source_id": "SRC-DOE-TFP-PROJECTS", "geometry_quality": "schematic"},
      "geometry": {"type": "LineString", "coordinates": [[-101.50,36.70],[-99.70,36.40],[-97.80,36.10],[-95.80,35.80]]}
    }
  ]
}
